     2.11           N: GPS NAV DATA                         RINEX VERSION / TYPE
teqc  2019Feb25                         20221121 12:25:30UTCPGM / RUN BY / DATE
OSX ker:10.11.6|Core i5|gcc 4.3 -m64|OSX ker:10.10+|=+      COMMENT
    4.6566D-09  1.4901D-08 -5.9605D-08 -5.9605D-08          ION ALPHA
    7.9872D+04  6.5536D+04 -6.5536D+04 -3.9322D+05          ION BETA
    9.313225746155D-10 4.440892098501D-15   503808     1541 DELTA-UTC: A0,A1,T,W
                                                            END OF HEADER
28 09  7 23 12  0  0.0-2.602487802505D-05-1.136868377216D-13 0.000000000000D+00
    7.200000000000D+01-1.575000000000D+02 4.009095566351D-09-2.446776173043D+00
   -8.042901754379D-06 1.495800213888D-02 8.461996912956D-06 5.153658819199D+03
    3.888000000000D+05 1.359730958939D-07 2.820120485749D+00-4.842877388000D-08
    9.675235279356D-01 2.164687500000D+02-2.020728530769D+00-7.764966299157D-09
   -3.925163498815D-10 1.000000000000D+00 1.541000000000D+03 0.000000000000D+00
    2.800000000000D+00 0.000000000000D+00-1.071020960808D-08 7.200000000000D+01
    3.816180000000D+05 4.000000000000D+00
24 09  7 23 12  0  0.0 2.066153101623D-04 2.955857780762D-12 0.000000000000D+00
    1.700000000000D+01 1.868750000000D+01 5.314864242572D-09-1.745638771650D+00
    1.005828380585D-06 6.617986597121D-03 4.909932613373D-06 5.153661506653D+03
    3.888000000000D+05-1.601874828339D-07-1.349270281792D+00-3.166496753693D-08
    9.499073376020D-01 2.831875000000D+02-6.491783255459D-01-8.481781871689D-09
    3.707297280955D-10 1.000000000000D+00 1.541000000000D+03 0.000000000000D+00
    2.000000000000D+00 0.000000000000D+00-1.396983861923D-09 1.700000000000D+01
    3.816180000000D+05 4.000000000000D+00
26 09  7 23 12  0  0.0 6.477348506451D-05 0.000000000000D+00 0.000000000000D+00
    7.800000000000D+01 1.133125000000D+02 3.827659437379D-09 3.245543709237D-01
    6.277114152908D-06 2.025716402568D-02 1.117773354053D-05 5.154913194656D+03
    3.888000000000D+05-1.769512891769D-07 7.510324943980D-01 1.732259988785D-07
    9.926629339499D-01 1.832812500000D+02 1.026410233329D+00-7.979975255143D-09
    6.071681481333D-11 1.000000000000D+00 1.541000000000D+03 0.000000000000D+00
    2.000000000000D+00 0.000000000000D+00-6.519258022308D-09 7.800000000000D+01
    3.819420000000D+05 4.000000000000D+00
22 09  7 23 12  0  0.0 1.949248835444D-04-6.821210263297D-13 0.000000000000D+00
    8.000000000000D+01-4.553125000000D+01 5.162000732336D-09-2.684005189487D+00
   -2.499669790268D-06 5.199461011216D-03 9.560957551003D-06 5.153655809402D+03
    3.888000000000D+05 9.685754776001D-08-3.184748783742D-01-2.607703208923D-08
    9.393811768137D-01 1.820312500000D+02-1.898942874044D+00-8.220342410257D-09
   -5.371652322309D-10 1.000000000000D+00 1.541000000000D+03 0.000000000000D+00
    4.000000000000D+00 0.000000000000D+00-1.769512891769D-08 8.000000000000D+01
    3.819420000000D+05 4.000000000000D+00
 9 09  7 23 11 59 44.0 6.806058809161D-05 2.046363078989D-12 0.000000000000D+00
    1.700000000000D+01 5.156250000000D+01 4.798414158924D-09-3.872513166746D-01
    2.874061465263D-06 2.075686445460D-02 1.687556505203D-06 5.153625888824D+03
    3.887840000000D+05-2.365559339523D-07 1.708673144661D+00 8.754432201386D-08
    9.767075418467D-01 3.560312500000D+02 1.496512872362D+00-8.934300720915D-09
    1.607209803882D-10 1.000000000000D+00 1.541000000000D+03 0.000000000000D+00
    2.000000000000D+00 0.000000000000D+00-5.587935447693D-09 1.700000000000D+01
    3.826020000000D+05 4.000000000000D+00
14 09  7 23 12  0  0.0-7.584039121866D-05 5.570655048359D-12 0.000000000000D+00
    8.300000000000D+01 1.108750000000D+02 3.775871565921D-09 2.791720213393D+00
    5.761161446571D-06 4.660098929890D-03 1.133419573307D-05 5.153630001068D+03
    3.888000000000D+05-2.421438694000D-08 7.336668317113D-01-1.061707735062D-07
    9.883233483888D-01 1.734375000000D+02-2.168301059105D+00-7.562815021602D-09
    1.192906832215D-10 1.000000000000D+00 1.541000000000D+03 0.000000000000D+00
    2.000000000000D+00 0.000000000000D+00-9.313225746155D-09 8.300000000000D+01
    3.877080000000D+05 4.000000000000D+00
26 09  7 23 14  0  0.0 6.477348506451D-05 0.000000000000D+00 0.000000000000D+00
    8.100000000000D+01 1.154687500000D+02 3.767299780300D-09 1.373916418162D+00
    6.092712283134D-06 2.025943761691D-02 1.243501901627D-05 5.154917654037D+03
    3.960000000000D+05-4.451721906662D-07 7.509745803970D-01 6.519258022308D-08
    9.926637619616D-01 1.611562500000D+02 1.026464220858D+00-7.864970464732D-09
    1.742929742877D-10 1.000000000000D+00 1.541000000000D+03 0.000000000000D+00
    2.000000000000D+00 0.000000000000D+00-6.519258022308D-09 8.100000000000D+01
    3.888180000000D+05 4.000000000000D+00
 9 09  7 23 14  0  0.0 6.807548925281D-05 2.046363078989D-12 0.000000000000D+00
    5.100000000000D+01 5.396875000000D+01 4.871274336700D-09 6.653039091497D-01
    2.799555659294D-06 2.075657551177D-02 1.855194568634D-06 5.153625272751D+03
    3.960000000000D+05-2.719461917877D-07 1.708609174179D+00-6.705522537231D-08
    9.767082469732D-01 3.577812500000D+02 1.496503477502D+00-8.922514515687D-09
    5.857386840816D-11 1.000000000000D+00 1.541000000000D+03 0.000000000000D+00
    2.000000000000D+00 0.000000000000D+00-5.587935447693D-09 5.100000000000D+01
    3.888180000000D+05 4.000000000000D+00
18 09  7 23 14  0  0.0-3.764592111111D-05 3.069544618484D-12 0.000000000000D+00
    5.300000000000D+01-3.756250000000D+01 5.180215776780D-09-6.101582276079D-01
   -1.730397343636D-06 1.073192700278D-02 9.573996067047D-06 5.153607400894D+03
    3.960000000000D+05 9.313225746155D-08-3.240998993303D-01 1.508742570877D-07
    9.417072224115D-01 1.856562500000D+02-2.403826896582D+00-8.412136113520D-09
   -5.621662736246D-10 1.000000000000D+00 1.541000000000D+03 0.000000000000D+00
    2.000000000000D+00 0.000000000000D+00-1.071020960808D-08 5.300000000000D+01
    3.888180000000D+05 4.000000000000D+00
22 09  7 23 14  0  0.0 1.949197612703D-04-6.821210263297D-13 0.000000000000D+00
    8.100000000000D+01-4.081250000000D+01 5.132713798132D-09-1.633920114005D+00
   -1.985579729080D-06 5.199845763855D-03 9.419396519661D-06 5.153654487610D+03
    3.960000000000D+05 1.043081283569D-07-3.185339978196D-01 5.215406417847D-08
    9.393772342495D-01 1.832500000000D+02-1.898831298745D+00-8.254272395006D-09
   -5.468084910542D-10 1.000000000000D+00 1.541000000000D+03 0.000000000000D+00
    4.000000000000D+00 0.000000000000D+00-1.769512891769D-08 8.100000000000D+01
    3.888180000000D+05 4.000000000000D+00
27 09  7 23 14  0  0.0 6.803404539824D-05 3.183231456205D-12 0.000000000000D+00
    1.000000000000D+02 6.296875000000D+01 4.636621705334D-09-2.282073560107D+00
    3.537163138390D-06 2.131101477426D-02 2.421438694000D-07 5.153762849808D+03
    3.960000000000D+05 2.216547727585D-07 1.684389488669D+00 1.639127731323D-07
    9.747579372550D-01 3.773750000000D+02-1.568548864768D+00-8.206770416358D-09
    3.060841782060D-10 1.000000000000D+00 1.541000000000D+03 0.000000000000D+00
    2.800000000000D+00 0.000000000000D+00-4.190951585770D-09 1.000000000000D+02
    3.888180000000D+05 4.000000000000D+00
15 09  7 23 14  0  0.0-3.101802431047D-04-2.387423592154D-12 0.000000000000D+00
    1.400000000000D+01 1.336250000000D+02 4.458757153704D-09-2.262627569395D+00
    6.921589374542D-06 1.502733095549D-03 1.176632940769D-05 5.153646995544D+03
    3.960000000000D+05-5.029141902924D-08 6.793660672836D-01 1.862645149231D-09
    9.563060066923D-01 1.528125000000D+02-4.868291030719D-01-7.961760210699D-09
    1.792931825664D-10 1.000000000000D+00 1.541000000000D+03 0.000000000000D+00
    2.000000000000D+00 0.000000000000D+00-9.778887033463D-09 1.400000000000D+01
    3.888180000000D+05 4.000000000000D+00
28 09  7 23 14  0  0.0-2.602580934763D-05-1.136868377216D-13 0.000000000000D+00
    7.300000000000D+01-1.291875000000D+02 4.325537318849D-09-1.396825740153D+00
   -6.806105375290D-06 1.495975477155D-02 8.130446076393D-06 5.153651401520D+03
    3.960000000000D+05 2.905726432800D-07 2.820065142096D+00 2.793967723846D-07
    9.675192957136D-01 2.241250000000D+02-2.020489604062D+00-8.023191340981D-09
   -5.625234313588D-10 1.000000000000D+00 1.541000000000D+03 0.000000000000D+00
    2.800000000000D+00 0.000000000000D+00-1.071020960808D-08 7.300000000000D+01
    3.888180000000D+05 4.000000000000D+00
14 09  7 23 14  0  0.0-7.579987868667D-05 5.570655048359D-12 0.000000000000D+00
    8.400000000000D+01 1.178437500000D+02 3.763371045224D-09-2.441116464836D+00
    6.154179573059D-06 4.658256657422D-03 1.201592385769D-05 5.153633617401D+03
    3.960000000000D+05 1.434236764908D-07 7.336113783386D-01-1.676380634308D-08
    9.883244704470D-01 1.601875000000D+02-2.168447677144D+00-7.627817729226D-09
    2.596536727606D-10 1.000000000000D+00 1.541000000000D+03 0.000000000000D+00
    2.800000000000D+00 0.000000000000D+00-9.313225746155D-09 8.400000000000D+01
    3.888180000000D+05 4.000000000000D+00
11 09  7 23 14  0  0.0-1.184083521366D-05-1.591615728103D-12 0.000000000000D+00
    4.200000000000D+01 5.087500000000D+01 6.562773365853D-09 1.451299224004D+00
    2.613291144371D-06 9.536892641336D-03 5.289912223816D-06 5.153687686920D+03
    3.960000000000D+05-1.583248376846D-07-1.616653250954D+00 1.192092895508D-07
    8.887977750006D-01 2.387187500000D+02 7.059292714848D-01-9.263957309578D-09
    4.200174954146D-10 1.000000000000D+00 1.541000000000D+03 0.000000000000D+00
    2.000000000000D+00 0.000000000000D+00-1.164153218269D-08 4.200000000000D+01
    3.895920000000D+05 4.000000000000D+00
